start=new Date('2022-06-20T00:00:00.000Z').valueOf();
sats=[{"PERIAPSIS":"346.018","APOAPSIS":"354.310","NORAD_CAT_ID":"52460","SEMIMAJOR_AXIS":"6728.299","OBJECT_ID":"2022-049K","MEAN_MOTION":"15.73058203","SITE":"AFETR","REV_AT_EPOCH":"718","OBJECT_TYPE":"PAYLOAD","EPOCH":"2022-06-19T22:26:16.903104","INCLINATION":"53.2337","DECAY_DATE":null,"PERIOD":"91.541","RCS_SIZE":"MEDIUM","EPHEMERIS_TYPE":"0","CENTER_NAME":"EARTH","TLE_LINE2":"2 52460  53.2337  45.9520 0006162  69.8752 290.3495 15.73058203  7181","MEAN_ANOMALY":"290.3495","MEAN_MOTION_DOT":"-0.00000628","GP_ID":"206425473","REF_FRAME":"TEME","BSTAR":"0.00000000000000","ELEMENT_SET_NO":"999","RA_OF_ASC_NODE":"45.9520","MEAN_ELEMENT_THEORY":"SGP4","TLE_LINE1":"1 52460U 22049K   22170.93491786 -.00000628  00000-0  00000+0 0  9999","ARG_OF_PERICENTER":"69.8752","FILE":"3497563","ECCENTRICITY":"0.00061620","LAUNCH_DATE":"2022-05-06","MEAN_MOTION_DDOT":"0.0000000000000","CLASSIFICATION_TYPE":"U","COUNTRY_CODE":"US","TIME_SYSTEM":"UTC","OBJECT_NAME":"STARLINK-3865"},{"ELEMENT_SET_NO":"999","RA_OF_ASC_NODE":"46.0470","MEAN_ELEMENT_THEORY":"SGP4","TLE_LINE1":"1 52461U 22049L   22170.91667824 -.00069091  00000-0 -49110-3 0  9995","ARG_OF_PERICENTER":"28.2804","FILE":"3497669","LAUNCH_DATE":"2022-05-06","ECCENTRICITY":"0.00020200","MEAN_MOTION_DDOT":"0.0000000000000","CLASSIFICATION_TYPE":"U","COUNTRY_CODE":"US","TIME_SYSTEM":"UTC","OBJECT_NAME":"STARLINK-3900","PERIAPSIS":"348.300","APOAPSIS":"351.018","NORAD_CAT_ID":"52461","OBJECT_ID":"2022-049L","SEMIMAJOR_AXIS":"6727.794","MEAN_MOTION":"15.73235587","SITE":"AFETR","REV_AT_EPOCH":"130","EPOCH":"2022-06-19T22:00:00.999936","OBJECT_TYPE":"PAYLOAD","INCLINATION":"53.2161","DECAY_DATE":null,"PERIOD":"91.531","RCS_SIZE":"LARGE","EPHEMERIS_TYPE":"0","TLE_LINE2":"2 52461  53.2161  46.0470 0002020  28.2804 227.0235 15.73235587  1308","CENTER_NAME":"EARTH","MEAN_ANOMALY":"227.0235","MEAN_MOTION_DOT":"-0.00069091","GP_ID":"206450553","REF_FRAME":"TEME","BSTAR":"-0.00049110000000"},{"EPOCH":"2022-06-19T22:00:00.999936","OBJECT_TYPE":"PAYLOAD","REV_AT_EPOCH":"130","SITE":"AFETR","MEAN_MOTION":"15.72574140","OBJECT_ID":"2022-049M","SEMIMAJOR_AXIS":"6729.680","NORAD_CAT_ID":"52462","APOAPSIS":"352.787","PERIAPSIS":"350.303","BSTAR":"-0.00857700000000","REF_FRAME":"TEME","GP_ID":"206450755","MEAN_ANOMALY":"226.9255","MEAN_MOTION_DOT":"-0.01054642","TLE_LINE2":"2 52462  53.2172  46.0274 0001845  31.6426 226.9255 15.72574140  1305","CENTER_NAME":"EARTH","RCS_SIZE":"MEDIUM","EPHEMERIS_TYPE":"0","PERIOD":"91.570","DECAY_DATE":null,"INCLINATION":"53.2172","FILE":"3497669","ARG_OF_PERICENTER":"31.6426","TLE_LINE1":"1 52462U 22049M   22170.91667824 -.01054642  00000-0 -85770-2 0  9994","MEAN_ELEMENT_THEORY":"SGP4","RA_OF_ASC_NODE":"46.0274","ELEMENT_SET_NO":"999","OBJECT_NAME":"STARLINK-3903","TIME_SYSTEM":"UTC","COUNTRY_CODE":"US","CLASSIFICATION_TYPE":"U","MEAN_MOTION_DDOT":"0.0000000000000","LAUNCH_DATE":"2022-05-06","ECCENTRICITY":"0.00018450"},{"FILE":"3497669","TLE_LINE1":"1 52463U 22049N   22170.91667824  .00037422  00000-0  27001-3 0  9993","ARG_OF_PERICENTER":"46.9736","MEAN_ELEMENT_THEORY":"SGP4","RA_OF_ASC_NODE":"46.0442","ELEMENT_SET_NO":"999","TIME_SYSTEM":"UTC","OBJECT_NAME":"STARLINK-3885","COUNTRY_CODE":"US","MEAN_MOTION_DDOT":"0.0000000000000","CLASSIFICATION_TYPE":"U","LAUNCH_DATE":"2022-05-06","ECCENTRICITY":"0.00016060","EPOCH":"2022-06-19T22:00:00.999936","OBJECT_TYPE":"PAYLOAD","REV_AT_EPOCH":"130","MEAN_MOTION":"15.73187196","OBJECT_ID":"2022-049N","SEMIMAJOR_AXIS":"6727.932","SITE":"AFETR","PERIAPSIS":"348.716","APOAPSIS":"350.877","NORAD_CAT_ID":"52463","BSTAR":"0.00027001000000","GP_ID":"206450105","REF_FRAME":"TEME","TLE_LINE2":"2 52463  53.2161  46.0442 0001606  46.9736 209.5854 15.73187196  1303","CENTER_NAME":"EARTH","RCS_SIZE":"LARGE","EPHEMERIS_TYPE":"0","MEAN_MOTION_DOT":"0.00037422","MEAN_ANOMALY":"209.5854","DECAY_DATE":null,"PERIOD":"91.534","INCLINATION":"53.2161"},{"MEAN_ANOMALY":"275.4893","MEAN_MOTION_DOT":"-0.00000623","EPHEMERIS_TYPE":"0","RCS_SIZE":"LARGE","CENTER_NAME":"EARTH","TLE_LINE2":"2 52464  53.2319  45.9622 0003719  84.7131 275.4893 15.73031729  7180","GP_ID":"206425460","REF_FRAME":"TEME","BSTAR":"0.00000000000000","INCLINATION":"53.2319","PERIOD":"91.543","DECAY_DATE":null,"REV_AT_EPOCH":"718","EPOCH":"2022-06-19T22:25:56.676864","OBJECT_TYPE":"PAYLOAD","APOAPSIS":"352.742","NORAD_CAT_ID":"52464","PERIAPSIS":"347.738","SITE":"AFETR","SEMIMAJOR_AXIS":"6728.375","OBJECT_ID":"2022-049P","MEAN_MOTION":"15.73031729","COUNTRY_CODE":"US","OBJECT_NAME":"STARLINK-3904","TIME_SYSTEM":"UTC","ECCENTRICITY":"0.00037190","LAUNCH_DATE":"2022-05-06","CLASSIFICATION_TYPE":"U","MEAN_MOTION_DDOT":"0.0000000000000","MEAN_ELEMENT_THEORY":"SGP4","TLE_LINE1":"1 52464U 22049P   22170.93468376 -.00000623  00000-0  00000+0 0  9997","ARG_OF_PERICENTER":"84.7131","FILE":"3497554","ELEMENT_SET_NO":"999","RA_OF_ASC_NODE":"45.9622"},{"EPOCH":"2022-06-19T19:23:03.049152","OBJECT_TYPE":"PAYLOAD","REV_AT_EPOCH":"716","SEMIMAJOR_AXIS":"6727.879","OBJECT_ID":"2022-049Q","MEAN_MOTION":"15.73205533","SITE":"AFETR","PERIAPSIS":"349.431","APOAPSIS":"350.058","NORAD_CAT_ID":"52465","REF_FRAME":"TEME","GP_ID":"206424934","BSTAR":"0.00000000000000","EPHEMERIS_TYPE":"0","RCS_SIZE":"MEDIUM","CENTER_NAME":"EARTH","TLE_LINE2":"2 52465  53.2139  46.5751 0000466 303.7685  56.3823 15.73205533  7168","MEAN_ANOMALY":"56.3823","MEAN_MOTION_DOT":"-0.00000618","DECAY_DATE":null,"PERIOD":"91.533","INCLINATION":"53.2139","TLE_LINE1":"1 52465U 22049Q   22170.80767418 -.00000618  00000-0  00000+0 0  9997","ARG_OF_PERICENTER":"303.7685","FILE":"3497426","MEAN_ELEMENT_THEORY":"SGP4","RA_OF_ASC_NODE":"46.5751","ELEMENT_SET_NO":"999","TIME_SYSTEM":"UTC","OBJECT_NAME":"STARLINK-3863","COUNTRY_CODE":"US","MEAN_MOTION_DDOT":"0.0000000000000","CLASSIFICATION_TYPE":"U","ECCENTRICITY":"0.00004660","LAUNCH_DATE":"2022-05-06"},{"MEAN_ELEMENT_THEORY":"SGP4","ARG_OF_PERICENTER":"26.8814","TLE_LINE1":"1 52466U 22049R   22170.91667824 -.01054845  00000-0 -85734-2 0  9993","FILE":"3497669","ELEMENT_SET_NO":"999","RA_OF_ASC_NODE":"46.0263","COUNTRY_CODE":"US","OBJECT_NAME":"STARLINK-3840","TIME_SYSTEM":"UTC","LAUNCH_DATE":"2022-05-06","ECCENTRICITY":"0.00019930","CLASSIFICATION_TYPE":"U","MEAN_MOTION_DDOT":"0.0000000000000","REV_AT_EPOCH":"130","EPOCH":"2022-06-19T22:00:00.999936","OBJECT_TYPE":"PAYLOAD","NORAD_CAT_ID":"52466","APOAPSIS":"352.849","PERIAPSIS":"350.166","SITE":"AFETR","SEMIMAJOR_AXIS":"6729.642","OBJECT_ID":"2022-049R","MEAN_MOTION":"15.72587370","MEAN_ANOMALY":"232.9592","MEAN_MOTION_DOT":"-0.01054845","EPHEMERIS_TYPE":"0","RCS_SIZE":"MEDIUM","CENTER_NAME":"EARTH","TLE_LINE2":"2 52466  53.2172  46.0263 0001993  26.8814 232.9592 15.72587370  1308","REF_FRAME":"TEME","GP_ID":"206450822","BSTAR":"-0.00857340000000","INCLINATION":"53.2172","PERIOD":"91.569","DECAY_DATE":null},{"RA_OF_ASC_NODE":"46.0270","ELEMENT_SET_NO":"999","FILE":"3497669","ARG_OF_PERICENTER":"31.4872","TLE_LINE1":"1 52467U 22049S   22170.91667824 -.01054574  00000-0 -85740-2 0  9990","MEAN_ELEMENT_THEORY":"SGP4","CLASSIFICATION_TYPE":"U","MEAN_MOTION_DDOT":"0.0000000000000","LAUNCH_DATE":"2022-05-06","ECCENTRICITY":"0.00018420","OBJECT_NAME":"STARLINK-3873","TIME_SYSTEM":"UTC","COUNTRY_CODE":"US","SITE":"AFETR","MEAN_MOTION":"15.72580644","OBJECT_ID":"2022-049S","SEMIMAJOR_AXIS":"6729.662","APOAPSIS":"352.766","NORAD_CAT_ID":"52467","PERIAPSIS":"350.287","OBJECT_TYPE":"PAYLOAD","EPOCH":"2022-06-19T22:00:00.999936","REV_AT_EPOCH":"130","PERIOD":"91.569","DECAY_DATE":null,"INCLINATION":"53.2172","BSTAR":"-0.00857400000000","REF_FRAME":"TEME","GP_ID":"206450452","MEAN_ANOMALY":"227.7173","MEAN_MOTION_DOT":"-0.01054574","CENTER_NAME":"EARTH","TLE_LINE2":"2 52467  53.2172  46.0270 0001842  31.4872 227.7173 15.72580644  1300","EPHEMERIS_TYPE":"0","RCS_SIZE":"LARGE"},{"PERIOD":"91.568","DECAY_DATE":null,"INCLINATION":"53.2172","BSTAR":"-0.00856420000000","GP_ID":"206450310","REF_FRAME":"TEME","MEAN_MOTION_DOT":"-0.01054470","MEAN_ANOMALY":"222.2472","TLE_LINE2":"2 52468  53.2172  46.0250 0001611  39.5018 222.2472 15.72607004  1306","CENTER_NAME":"EARTH","RCS_SIZE":"LARGE","EPHEMERIS_TYPE":"0","SITE":"AFETR","MEAN_MOTION":"15.72607004","SEMIMAJOR_AXIS":"6729.586","OBJECT_ID":"2022-049T","APOAPSIS":"352.535","NORAD_CAT_ID":"52468","PERIAPSIS":"350.367","OBJECT_TYPE":"PAYLOAD","EPOCH":"2022-06-19T22:00:00.999936","REV_AT_EPOCH":"130","CLASSIFICATION_TYPE":"U","MEAN_MOTION_DDOT":"0.0000000000000","LAUNCH_DATE":"2022-05-06","ECCENTRICITY":"0.00016110","OBJECT_NAME":"STARLINK-3864","TIME_SYSTEM":"UTC","COUNTRY_CODE":"US","RA_OF_ASC_NODE":"46.0250","ELEMENT_SET_NO":"999","FILE":"3497669","TLE_LINE1":"1 52468U 22049T   22170.91667824 -.01054470  00000-0 -85642-2 0  9997","ARG_OF_PERICENTER":"39.5018","MEAN_ELEMENT_THEORY":"SGP4"},{"FILE":"3497546","ARG_OF_PERICENTER":"36.9765","TLE_LINE1":"1 52469U 22049R   22170.93431941  .00001927  00000-0  18206-4 0  9999","MEAN_ELEMENT_THEORY":"SGP4","RA_OF_ASC_NODE":"45.9466","ELEMENT_SET_NO":"999","OBJECT_NAME":"STARLINK-3828","TIME_SYSTEM":"UTC","COUNTRY_CODE":"US","CLASSIFICATION_TYPE":"U","MEAN_MOTION_DDOT":"0.0000000000000","LAUNCH_DATE":"2022-05-06","ECCENTRICITY":"0.00057760","EPOCH":"2022-06-19T22:25:25.197024","OBJECT_TYPE":"PAYLOAD","REV_AT_EPOCH":"718","SITE":"AFETR","MEAN_MOTION":"15.73171157","SEMIMAJOR_AXIS":"6727.977","OBJECT_ID":"2022-049U","APOAPSIS":"353.728","NORAD_CAT_ID":"52469","PERIAPSIS":"345.956","BSTAR":"0.00001820600000","REF_FRAME":"TEME","GP_ID":"206425474","MEAN_ANOMALY":"323.2181","MEAN_MOTION_DOT":"0.00001927","TLE_LINE2":"2 52469  53.2387  45.9466 0005776  36.9765 323.2181 15.73171157  7185","CENTER_NAME":"EARTH","EPHEMERIS_TYPE":"0","RCS_SIZE":"LARGE","PERIOD":"91.535","DECAY_DATE":null,"INCLINATION":"53.2387"}];
